[{"OBJECT_NAME":"STARLINK-2492","OBJECT_ID":"2021-027BK","EPOCH":"2026-03-10T00:00:02.999808","MEAN_MOTION":15.12197896,"ECCENTRICITY":0.00014351,"INCLINATION":53.0781,"RA_OF_ASC_NODE":150.1649,"ARG_OF_PERICENTER":119.0986,"MEAN_ANOMALY":148.3977,"EPHEMERIS_TYPE":0,"CLASSIFICATION_TYPE":"U","NORAD_CAT_ID":48149,"ELEMENT_SET_NO":999,"REV_AT_EPOCH":569,"BSTAR":0.080173393,"MEAN_MOTION_DOT":0.01517072,"MEAN_MOTION_DDOT":0},{"OBJECT_NAME":"FLOCK 4G-30","OBJECT_ID":"2025-009BY","EPOCH":"2026-03-09T17:00:32.842080","MEAN_MOTION":15.27244548,"ECCENTRICITY":0.00037948,"INCLINATION":97.3969,"RA_OF_ASC_NODE":150.6012,"ARG_OF_PERICENTER":342.4152,"MEAN_ANOMALY":17.6955,"EPHEMERIS_TYPE":0,"CLASSIFICATION_TYPE":"U","NORAD_CAT_ID":62679,"ELEMENT_SET_NO":999,"REV_AT_EPOCH":12134,"BSTAR":0.00049474629,"MEAN_MOTION_DOT":0.00013147,"MEAN_MOTION_DDOT":0}]
